
 1 90030U RELEAS14 00051.38558242 +.01672663  94000-5  22520-2 0 0035                                                                                                                                                                                                                                                                                                                                                                                                                                                           
 2 90030  28.5475 124.9280 0081002 156.8669 205.7976 16.0204499601011                                                                                                                                                                                                                                                                                                                                                                                                                                                           

         0.0000000       16.0047049        0.0081002       28.5475000      124.9280000      156.8669000      205.7976000
      2700.0000000       16.0833926        0.0062728       28.5475000      110.6065882      180.0326119      246.0680870
      5400.0000000       16.1625971        0.0044455       28.5475000       96.1231279      203.1983238      339.2793825
      8100.0000000       16.2423224        0.0026181       28.5475000       81.4776193      226.3640357      125.4314864
     10800.0000000       16.3225730        0.0007908       28.5475000       66.6700622      249.5297476      324.5243989
Sgp4Update: Eccentricity is negative, e = -0.1037E-02. SatNum:     90030-Mse:    13500.00                                      


 1 90031U RELEAS14 00051.38558242 +.00168784  00000 0  70845-3 0 0046                                                                                                                                                                                                                                                                                                                                                                                                                                                           
 2 90031  63.9976   6.4832 7509563 239.3244 315.9903  2.0525984300303                                                                                                                                                                                                                                                                                                                                                                                                                                                           

         0.0000000        2.0527442        0.7509563       63.9976000        6.4832000      239.3244000      315.9903000
      2700.0000000        2.0591647        0.7503692       63.9921486        6.1620240      239.3148882      263.6594100
      5400.0000000        2.0655759        0.7497822       63.9866973        5.8398744      239.3053764      215.6437079
      8100.0000000        2.0719774        0.7491951       63.9812459        5.5167510      239.2958646      171.9181723
     10800.0000000        2.0783792        0.7486080       63.9757946        5.1926541      239.2863527      132.4613055
     13500.0000000        2.0847980        0.7480210       63.9703432        4.8675834      239.2768409       97.2609650
     16200.0000000        2.0912518        0.7474339       63.9648918        4.5415391      239.2673291       66.3168471
     18900.0000000        2.0977565        0.7468468       63.9594405        4.2145211      239.2578173       39.6399316
     21600.0000000        2.1043225        0.7462597       63.9539891        3.8865294      239.2483055       17.2498786
     24300.0000000        2.1109519        0.7456727       63.9485377        3.5575641      239.2387937      359.1704237
     27000.0000000        2.1176363        0.7450856       63.9430864        3.2276251      239.2292819      345.4228559
     29700.0000000        2.1243579        0.7444985       63.9376350        2.8967125      239.2197700      336.0195129
     32400.0000000        2.1310947        0.7439115       63.9321837        2.5648261      239.2102582      330.9591285
     35100.0000000        2.1378285        0.7433244       63.9267323        2.2319661      239.2007464      330.2267609
     37800.0000000        2.1445517        0.7427373       63.9212809        1.8981325      239.1912346      333.7989357
     40500.0000000        2.1512688        0.7421503       63.9158296        1.5633252      239.1817228      341.6512566
     43200.0000000        2.1579937        0.7415632       63.9103782        1.2275442      239.1722110      353.7657079


 1 90032U RELEAS14 00051.38558242 +.00332394  00000 0  96401-4 0 0062                                                                                                                                                                                                                                                                                                                                                                                                                                                           
 2 90032  63.8221 352.9474 7190794 239.0801 307.3271  2.4861841700210                                                                                                                                                                                                                                                                                                                                                                                                                                                           

         0.0000000        2.4863764        0.7190794       63.8221000      352.9474000      239.0801000      307.3271000
      2700.0000000        2.4988860        0.7179645       63.8176845      352.5409650      239.0702606      189.7111102
      5400.0000000        2.5114797        0.7168495       63.8132689      352.1322929      239.0604212       80.5108954
      8100.0000000        2.5241581        0.7157346       63.8088534      351.7213837      239.0505818      339.7264556
     10800.0000000        2.5369220        0.7146196       63.8044379      351.3082373      239.0407424      247.3577909
     13500.0000000        2.5497721        0.7135047       63.8000223      350.8928538      239.0309031      163.4049011
     16200.0000000        2.5627092        0.7123898       63.7956068      350.4752332      239.0210637       87.8677864
     18900.0000000        2.5757339        0.7112748       63.7911912      350.0553754      239.0112243       20.7464467
     21600.0000000        2.5888471        0.7101599       63.7867757      349.6332805      239.0013849      322.0408821
     24300.0000000        2.6020494        0.7090449       63.7823602      349.2089484      238.9915455      271.7510924
     27000.0000000        2.6153416        0.7079300       63.7779446      348.7823792      238.9817061      229.8770778
     29700.0000000        2.6287245        0.7068151       63.7735291      348.3535729      238.9718667      196.4188382
     32400.0000000        2.6421989        0.7057001       63.7691136      347.9225295      238.9620273      171.3763736
     35100.0000000        2.6557655        0.7045852       63.7646980      347.4892489      238.9521880      154.7496840
     37800.0000000        2.6694251        0.7034702       63.7602825      347.0537311      238.9423486      146.5387694
     40500.0000000        2.6831786        0.7023553       63.7558670      346.6159763      238.9325092      146.7436299
     43200.0000000        2.6970268        0.7012404       63.7514514      346.1759843      238.9226698      155.3642654


 1 90033U RELEAS14 00051.92409179 +.00000011  00000 0  00000 0 0 0041                                                                                                                                                                                                                                                                                                                                                                                                                                                           
 2 90033  52.6683  23.9378 0137366 276.7208  81.7737  6.4729361700921                                                                                                                                                                                                                                                                                                                                                                                                                                                           

